{
  "type": "FeatureCollection",
  "features": [
    {
      "type": "Feature",
      "properties": {
        "norad_id": 67005,
        "name": "STARLINK-36148",
        "group": "last-30-days",
        "lat": -0.8670601764468536,
        "lon": -78.14495584567776,
        "alt_km": 359.55001864933547,
        "timestamp": "2025-12-27T03:58:42.934110+00:00",
        "meta_object_name": "STARLINK-36148",
        "meta_object_id": "2025-293C",
        "meta_epoch": "2025-12-26T20:00:01.999008",
        "meta_mean_motion": 15.71996764,
        "meta_eccentricity": 0.0003797,
        "meta_inclination": 69.9978,
        "meta_ra_of_asc_node": 283.1071,
        "meta_arg_of_pericenter": 261.9941,
        "meta_mean_anomaly": 17.2532,
        "meta_ephemeris_type": 0,
        "meta_classification_type": "U",
        "meta_norad_cat_id": 67005,
        "meta_element_set_no": 999,
        "meta_rev_at_epoch": 243,
        "meta_bstar": -0.014416,
        "meta_mean_motion_dot": -0.01674274,
        "meta_mean_motion_ddot": 0,
        "tle_line1": "1 67005U 25293C   25360.83335647 -.01674274  00000+0 -14416-1 0  9993",
        "tle_line2": "2 67005  69.9978 283.1071 0003797 261.9941  17.2532 15.71996764  2432"
      },
      "geometry": {
        "type": "Point",
        "coordinates": [
          -78.14495584567776,
          -0.8670601764468536
        ]
      }
    },
    {
      "type": "Feature",
      "properties": {
        "norad_id": 67006,
        "name": "STARLINK-36156",
        "group": "last-30-days",
        "lat": 3.5980480433578235,
        "lon": -76.52467120215148,
        "alt_km": 359.27065245507856,
        "timestamp": "2025-12-27T03:58:42.934120+00:00",
        "meta_object_name": "STARLINK-36156",
        "meta_object_id": "2025-293D",
        "meta_epoch": "2025-12-26T20:00:01.999008",
        "meta_mean_motion": 15.7194702,
        "meta_eccentricity": 0.000382,
        "meta_inclination": 69.9976,
        "meta_ra_of_asc_node": 283.0989,
        "meta_arg_of_pericenter": 262.6159,
        "meta_mean_anomaly": 21.4418,
        "meta_ephemeris_type": 0,
        "meta_classification_type": "U",
        "meta_norad_cat_id": 67006,
        "meta_element_set_no": 999,
        "meta_rev_at_epoch": 243,
        "meta_bstar": -0.014435,
        "meta_mean_motion_dot": -0.01673104,
        "meta_mean_motion_ddot": 0,
        "tle_line1": "1 67006U 25293D   25360.83335647 -.01673104  00000+0 -14435-1 0  9996",
        "tle_line2": "2 67006  69.9976 283.0989 0003820 262.6159  21.4418 15.71947020  2435"
      },
      "geometry": {
        "type": "Point",
        "coordinates": [
          -76.52467120215148,
          3.5980480433578235
        ]
      }
    },
    {
      "type": "Feature",
      "properties": {
        "norad_id": 67007,
        "name": "STARLINK-36123",
        "group": "last-30-days",
        "lat": 1.4857360536959807,
        "lon": -77.29358737199162,
        "alt_km": 359.47336779849684,
        "timestamp": "2025-12-27T03:58:42.934130+00:00",
        "meta_object_name": "STARLINK-36123",
        "meta_object_id": "2025-293E",
        "meta_epoch": "2025-12-26T20:00:01.999008",
        "meta_mean_motion": 15.71965424,
        "meta_eccentricity": 0.0003724,
        "meta_inclination": 69.9975,
        "meta_ra_of_asc_node": 283.1012,
        "meta_arg_of_pericenter": 261.0085,
        "meta_mean_anomaly": 20.7814,
        "meta_ephemeris_type": 0,
        "meta_classification_type": "U",
        "meta_norad_cat_id": 67007,
        "meta_element_set_no": 999,
        "meta_rev_at_epoch": 243,
        "meta_bstar": -0.014442,
        "meta_mean_motion_dot": -0.01674977,
        "meta_mean_motion_ddot": 0,
        "tle_line1": "1 67007U 25293E   25360.83335647 -.01674977  00000+0 -14442-1 0  9994",
        "tle_line2": "2 67007  69.9975 283.1012 0003724 261.0085  20.7814 15.71965424  2437"
      },
      "geometry": {
        "type": "Point",
        "coordinates": [
          -77.29358737199162,
          1.4857360536959807
        ]
      }
    },
    {
      "type": "Feature",
      "properties": {
        "norad_id": 67008,
        "name": "STARLINK-36163",
        "group": "last-30-days",
        "lat": 6.092254695654945,
        "lon": -75.6119104978372,
        "alt_km": 359.4746448709693,
        "timestamp": "2025-12-27T03:58:42.934147+00:00",
        "meta_object_name": "STARLINK-36163",
        "meta_object_id": "2025-293F",
        "meta_epoch": "2025-12-26T20:00:01.999008",
        "meta_mean_motion": 15.71834879,
        "meta_eccentricity": 0.0004043,
        "meta_inclination": 69.9976,
        "meta_ra_of_asc_node": 283.0958,
        "meta_arg_of_pericenter": 259.6974,
        "meta_mean_anomaly": 27.1356,
        "meta_ephemeris_type": 0,
        "meta_classification_type": "U",
        "meta_norad_cat_id": 67008,
        "meta_element_set_no": 999,
        "meta_rev_at_epoch": 243,
        "meta_bstar": -0.014259,
        "meta_mean_motion_dot": -0.01648258,
        "meta_mean_motion_ddot": 0,
        "tle_line1": "1 67008U 25293F   25360.83335647 -.01648258  00000+0 -14259-1 0  9994",
        "tle_line2": "2 67008  69.9976 283.0958 0004043 259.6974  27.1356 15.71834879  2433"
      },
      "geometry": {
        "type": "Point",
        "coordinates": [
          -75.6119104978372,
          6.092254695654945
        ]
      }
    },
    {
      "type": "Feature",
      "properties": {
        "norad_id": 67009,
        "name": "STARLINK-36118",
        "group": "last-30-days",
        "lat": 8.262685504021787,
        "lon": -74.81064078799311,
        "alt_km": 359.0718852844029,
        "timestamp": "2025-12-27T03:58:42.934156+00:00",
        "meta_object_name": "STARLINK-36118",
        "meta_object_id": "2025-293G",
        "meta_epoch": "2025-12-26T20:00:01.999008",
        "meta_mean_motion": 15.7190929,
        "meta_eccentricity": 0.0003894,
        "meta_inclination": 69.9976,
        "meta_ra_of_asc_node": 283.093,
        "meta_arg_of_pericenter": 260.9216,
        "meta_mean_anomaly": 28.16,
        "meta_ephemeris_type": 0,
        "meta_classification_type": "U",
        "meta_norad_cat_id": 67009,
        "meta_element_set_no": 999,
        "meta_rev_at_epoch": 237,
        "meta_bstar": -0.0147,
        "meta_mean_motion_dot": -0.01697943,
        "meta_mean_motion_ddot": 0,
        "tle_line1": "1 67009U 25293G   25360.83335647 -.01697943  00000+0 -14700-1 0  9991",
        "tle_line2": "2 67009  69.9976 283.0930 0003894 260.9216  28.1600 15.71909290  2377"
      },
      "geometry": {
        "type": "Point",
        "coordinates": [
          -74.81064078799311,
          8.262685504021787
        ]
      }
    },
    {
      "type": "Feature",
      "properties": {
        "norad_id": 67010,
        "name": "STARLINK-36189",
        "group": "last-30-days",
        "lat": 12.383277945969793,
        "lon": -73.26087783968762,
        "alt_km": 358.67365751992475,
        "timestamp": "2025-12-27T03:58:42.934166+00:00",
        "meta_object_name": "STARLINK-36189",
        "meta_object_id": "2025-293H",
        "meta_epoch": "2025-12-26T20:00:01.999008",
        "meta_mean_motion": 15.71858232,
        "meta_eccentricity": 0.0003594,
        "meta_inclination": 69.9975,
        "meta_ra_of_asc_node": 283.0876,
        "meta_arg_of_pericenter": 260.7943,
        "meta_mean_anomaly": 32.7373,
        "meta_ephemeris_type": 0,
        "meta_classification_type": "U",
        "meta_norad_cat_id": 67010,
        "meta_element_set_no": 999,
        "meta_rev_at_epoch": 243,
        "meta_bstar": -0.014568,
        "meta_mean_motion_dot": -0.01680947,
        "meta_mean_motion_ddot": 0,
        "tle_line1": "1 67010U 25293H   25360.83335647 -.01680947  00000+0 -14568-1 0  9991",
        "tle_line2": "2 67010  69.9975 283.0876 0003594 260.7943  32.7373 15.71858232  2433"
      },
      "geometry": {
        "type": "Point",
        "coordinates": [
          -73.26087783968762,
          12.383277945969793
        ]
      }
    },
    {
      "type": "Feature",
      "properties": {
        "norad_id": 67011,
        "name": "STARLINK-36167",
        "group": "last-30-days",
        "lat": 10.181534741994074,
        "lon": -74.09529777062123,
        "alt_km": 358.87042642828965,
        "timestamp": "2025-12-27T03:58:42.934175+00:00",
        "meta_object_name": "STARLINK-36167",
        "meta_object_id": "2025-293J",
        "meta_epoch": "2025-12-26T20:00:01.999008",
        "meta_mean_motion": 15.71842484,
        "meta_eccentricity": 0.000408,
        "meta_inclination": 69.9969,
        "meta_ra_of_asc_node": 283.0894,
        "meta_arg_of_pericenter": 263.8575,
        "meta_mean_anomaly": 27.3235,
        "meta_ephemeris_type": 0,
        "meta_classification_type": "U",
        "meta_norad_cat_id": 67011,
        "meta_element_set_no": 999,
        "meta_rev_at_epoch": 237,
        "meta_bstar": -0.014286,
        "meta_mean_motion_dot": -0.01651575,
        "meta_mean_motion_ddot": 0,
        "tle_line1": "1 67011U 25293J   25360.83335647 -.01651575  00000+0 -14286-1 0  9994",
        "tle_line2": "2 67011  69.9969 283.0894 0004080 263.8575  27.3235 15.71842484  2375"
      },
      "geometry": {
        "type": "Point",
        "coordinates": [
          -74.09529777062123,
          10.181534741994074
        ]
      }
    }
  ]
}